{
  "type": "FeatureCollection",
  "features": [
    {
      "type": "Feature",
      "properties": {
        "norad_id": 41773,
        "name": "SKYSAT-C2",
        "group": "resource",
        "lat": 5.861002822417448,
        "lon": 24.135903711082385,
        "alt_km": 453.8693866478334,
        "timestamp": "2025-12-26T22:28:05.436676+00:00",
        "meta_object_name": "SKYSAT-C2",
        "meta_object_id": "2016-058D",
        "meta_epoch": "2025-12-26T14:37:58.926720",
        "meta_mean_motion": 15.37583734,
        "meta_eccentricity": 0.0002572,
        "meta_inclination": 97.0353,
        "meta_ra_of_asc_node": 24.5495,
        "meta_arg_of_pericenter": 351.2382,
        "meta_mean_anomaly": 8.8818,
        "meta_ephemeris_type": 0,
        "meta_classification_type": "U",
        "meta_norad_cat_id": 41773,
        "meta_element_set_no": 999,
        "meta_rev_at_epoch": 51849,
        "meta_bstar": 0.00034081,
        "meta_mean_motion_dot": 0.000125,
        "meta_mean_motion_ddot": 0,
        "tle_line1": "1 41773U 16058D   25360.60970980  .00012500  00000+0  34081-3 0  9993",
        "tle_line2": "2 41773  97.0353  24.5495 0002572 351.2382   8.8818 15.37583734518496"
      },
      "geometry": {
        "type": "Point",
        "coordinates": [
          24.135903711082385,
          5.861002822417448
        ]
      }
    },
    {
      "type": "Feature",
      "properties": {
        "norad_id": 41774,
        "name": "SKYSAT-C3",
        "group": "resource",
        "lat": -22.786096535472012,
        "lon": -148.90473886731348,
        "alt_km": 437.37985970481714,
        "timestamp": "2025-12-26T22:28:05.436687+00:00",
        "meta_object_name": "SKYSAT-C3",
        "meta_object_id": "2016-058E",
        "meta_epoch": "2025-12-26T15:22:29.771040",
        "meta_mean_motion": 15.44897562,
        "meta_eccentricity": 0.0002158,
        "meta_inclination": 96.9285,
        "meta_ra_of_asc_node": 33.7414,
        "meta_arg_of_pericenter": 106.7357,
        "meta_mean_anomaly": 253.413,
        "meta_ephemeris_type": 0,
        "meta_classification_type": "U",
        "meta_norad_cat_id": 41774,
        "meta_element_set_no": 999,
        "meta_rev_at_epoch": 51940,
        "meta_bstar": 0.00041358,
        "meta_mean_motion_dot": 0.00019372,
        "meta_mean_motion_ddot": 0,
        "tle_line1": "1 41774U 16058E   25360.64062235  .00019372  00000+0  41358-3 0  9992",
        "tle_line2": "2 41774  96.9285  33.7414 0002158 106.7357 253.4130 15.44897562519409"
      },
      "geometry": {
        "type": "Point",
        "coordinates": [
          -148.90473886731348,
          -22.786096535472012
        ]
      }
    },
    {
      "type": "Feature",
      "properties": {
        "norad_id": 41785,
        "name": "ALSAT 1B",
        "group": "resource",
        "lat": -40.458585939542935,
        "lon": 18.809480311191287,
        "alt_km": 662.8305032280296,
        "timestamp": "2025-12-26T22:28:05.436697+00:00",
        "meta_object_name": "ALSAT 1B",
        "meta_object_id": "2016-059C",
        "meta_epoch": "2025-12-26T17:45:34.825824",
        "meta_mean_motion": 14.72089773,
        "meta_eccentricity": 0.0010721,
        "meta_inclination": 97.7812,
        "meta_ra_of_asc_node": 11.9249,
        "meta_arg_of_pericenter": 64.2494,
        "meta_mean_anomaly": 295.9819,
        "meta_ephemeris_type": 0,
        "meta_classification_type": "U",
        "meta_norad_cat_id": 41785,
        "meta_element_set_no": 999,
        "meta_rev_at_epoch": 49520,
        "meta_bstar": 9.8152e-05,
        "meta_mean_motion_dot": 5.71e-06,
        "meta_mean_motion_ddot": 0,
        "tle_line1": "1 41785U 16059C   25360.73998641  .00000571  00000+0  98152-4 0  9990",
        "tle_line2": "2 41785  97.7812  11.9249 0010721  64.2494 295.9819 14.72089773495208"
      },
      "geometry": {
        "type": "Point",
        "coordinates": [
          18.809480311191287,
          -40.458585939542935
        ]
      }
    },
    {
      "type": "Feature",
      "properties": {
        "norad_id": 41787,
        "name": "PATHFINDER 1",
        "group": "resource",
        "lat": 23.81314567722316,
        "lon": -173.47443500619795,
        "alt_km": 678.7771901052729,
        "timestamp": "2025-12-26T22:28:05.436707+00:00",
        "meta_object_name": "PATHFINDER 1",
        "meta_object_id": "2016-059E",
        "meta_epoch": "2025-12-26T13:34:46.547328",
        "meta_mean_motion": 14.67345556,
        "meta_eccentricity": 0.0029523,
        "meta_inclination": 97.8139,
        "meta_ra_of_asc_node": 2.6979,
        "meta_arg_of_pericenter": 38.9477,
        "meta_mean_anomaly": 321.3847,
        "meta_ephemeris_type": 0,
        "meta_classification_type": "U",
        "meta_norad_cat_id": 41787,
        "meta_element_set_no": 999,
        "meta_rev_at_epoch": 49439,
        "meta_bstar": 0.00017286,
        "meta_mean_motion_dot": 9.36e-06,
        "meta_mean_motion_ddot": 0,
        "tle_line1": "1 41787U 16059E   25360.56581652  .00000936  00000+0  17286-3 0  9996",
        "tle_line2": "2 41787  97.8139   2.6979 0029523  38.9477 321.3847 14.67345556494391"
      },
      "geometry": {
        "type": "Point",
        "coordinates": [
          -173.47443500619795,
          23.81314567722316
        ]
      }
    },
    {
      "type": "Feature",
      "properties": {
        "norad_id": 41790,
        "name": "SCATSAT 1",
        "group": "resource",
        "lat": 20.969999068062453,
        "lon": 54.63616994476331,
        "alt_km": 613.6979868315011,
        "timestamp": "2025-12-26T22:28:05.436717+00:00",
        "meta_object_name": "SCATSAT 1",
        "meta_object_id": "2016-059H",
        "meta_epoch": "2025-12-26T14:15:15.732576",
        "meta_mean_motion": 14.78980653,
        "meta_eccentricity": 0.005643,
        "meta_inclination": 98.1445,
        "meta_ra_of_asc_node": 57.4361,
        "meta_arg_of_pericenter": 84.3615,
        "meta_mean_anomaly": 276.4027,
        "meta_ephemeris_type": 0,
        "meta_classification_type": "U",
        "meta_norad_cat_id": 41790,
        "meta_element_set_no": 999,
        "meta_rev_at_epoch": 7607,
        "meta_bstar": 0.00021562,
        "meta_mean_motion_dot": 1.578e-05,
        "meta_mean_motion_ddot": 0,
        "tle_line1": "1 41790U 16059H   25360.59393209  .00001578  00000+0  21562-3 0  9997",
        "tle_line2": "2 41790  98.1445  57.4361 0056430  84.3615 276.4027 14.78980653 76074"
      },
      "geometry": {
        "type": "Point",
        "coordinates": [
          54.63616994476331,
          20.969999068062453
        ]
      }
    },
    {
      "type": "Feature",
      "properties": {
        "norad_id": 41875,
        "name": "GOKTURK 1A",
        "group": "resource",
        "lat": 0.9791798885224529,
        "lon": -107.02788142624031,
        "alt_km": 686.8835087497418,
        "timestamp": "2025-12-26T22:28:05.436728+00:00",
        "meta_object_name": "GOKTURK 1A",
        "meta_object_id": "2016-073A",
        "meta_epoch": "2025-12-26T19:10:49.164096",
        "meta_mean_motion": 14.62795525,
        "meta_eccentricity": 0.0001289,
        "meta_inclination": 98.1423,
        "meta_ra_of_asc_node": 252.9772,
        "meta_arg_of_pericenter": 82.7111,
        "meta_mean_anomaly": 277.4237,
        "meta_ephemeris_type": 0,
        "meta_classification_type": "U",
        "meta_norad_cat_id": 41875,
        "meta_element_set_no": 999,
        "meta_rev_at_epoch": 48362,
        "meta_bstar": 0.00010071,
        "meta_mean_motion_dot": 4.67e-06,
        "meta_mean_motion_ddot": 0,
        "tle_line1": "1 41875U 16073A   25360.79918014  .00000467  00000+0  10071-3 0  9995",
        "tle_line2": "2 41875  98.1423 252.9772 0001289  82.7111 277.4237 14.62795525483629"
      },
      "geometry": {
        "type": "Point",
        "coordinates": [
          -107.02788142624031,
          0.9791798885224529
        ]
      }
    },
    {
      "type": "Feature",
      "properties": {
        "norad_id": 41877,
        "name": "RESOURCESAT-2A",
        "group": "resource",
        "lat": 69.33344059950018,
        "lon": -85.12422737768108,
        "alt_km": 813.0957686086158,
        "timestamp": "2025-12-26T22:28:05.436738+00:00",
        "meta_object_name": "RESOURCESAT-2A",
        "meta_object_id": "2016-074A",
        "meta_epoch": "2025-12-26T18:34:47.920800",
        "meta_mean_motion": 14.21605461,
        "meta_eccentricity": 0.0001657,
        "meta_inclination": 98.7733,
        "meta_ra_of_asc_node": 70.5471,
        "meta_arg_of_pericenter": 195.7088,
        "meta_mean_anomaly": 164.4038,
        "meta_ephemeris_type": 0,
        "meta_classification_type": "U",
        "meta_norad_cat_id": 41877,
        "meta_element_set_no": 999,
        "meta_rev_at_epoch": 46980,
        "meta_bstar": 7.0944e-05,
        "meta_mean_motion_dot": 1.11e-06,
        "meta_mean_motion_ddot": 0,
        "tle_line1": "1 41877U 16074A   25360.77416575  .00000111  00000+0  70944-4 0  9993",
        "tle_line2": "2 41877  98.7733  70.5471 0001657 195.7088 164.4038 14.21605461469800"
      },
      "geometry": {
        "type": "Point",
        "coordinates": [
          -85.12422737768108,
          69.33344059950018
        ]
      }
    }
  ]
}